[{"OBJECT_NAME":"STARLINK-36200","OBJECT_ID":"2025-298AC","EPOCH":"2026-03-09T22:00:01.999584","MEAN_MOTION":14.98359117,"ECCENTRICITY":0.00021382,"INCLINATION":70.0008,"RA_OF_ASC_NODE":14.0348,"ARG_OF_PERICENTER":265.8327,"MEAN_ANOMALY":236.4744,"EPHEMERIS_TYPE":0,"CLASSIFICATION_TYPE":"U","NORAD_CAT_ID":67101,"ELEMENT_SET_NO":999,"REV_AT_EPOCH":590,"BSTAR":-0.0019755868,"MEAN_MOTION_DOT":-0.00023603,"MEAN_MOTION_DDOT":0},{"OBJECT_NAME":"ORBCOMM FM02","OBJECT_ID":"1995-017B","EPOCH":"2026-03-09T15:14:02.878656","MEAN_MOTION":14.96738099,"ECCENTRICITY":0.0008676,"INCLINATION":69.9626,"RA_OF_ASC_NODE":148.0696,"ARG_OF_PERICENTER":276.2558,"MEAN_ANOMALY":83.7611,"EPHEMERIS_TYPE":0,"CLASSIFICATION_TYPE":"U","NORAD_CAT_ID":23546,"ELEMENT_SET_NO":999,"REV_AT_EPOCH":65179,"BSTAR":0.00080978,"MEAN_MOTION_DOT":9.2e-5,"MEAN_MOTION_DDOT":0}]
